ISS (ZARYA)             
1 25544U 98067A   18091.38640794  .00002036  00000-0  37912-4 0  9997
2 25544  51.6410  41.5823 0001581 283.7207 220.8472 15.54178414106570
TIANGONG 1              
1 37820U 11053A   18091.67159643  .06702538  93469-5  14209-3 0  9996
2 37820  42.7393 196.1141 0005983 335.0657  25.0237 16.46560555373989
AGGIESAT 4              
1 41313U 98067HP  18071.01090851  .37535990  12794-4  22365-3 0  9992
2 41313  51.6166  39.7363 0003024 270.6416  89.8040 16.54059622121479
FLOCK 2E'-1             
1 41479U 98067HZ  18091.52788802  .00161310  22378-4  28346-3 0  9998
2 41479  51.6267 322.5675 0004524 219.2590 140.8093 16.01668826107442
FLOCK 2E'-3             
1 41480U 98067JA  18091.49352712  .00234173  32616-4  58105-3 0  9993
2 41480  51.6197 325.2960 0003797 219.2268 140.8465 15.95430406107396
FLOCK 2E-1              
1 41483U 98067JD  18091.10352388  .00061376  00000-0  25029-3 0  9993
2 41483  51.6316 335.8079 0002310 173.1962 186.9074 15.85538034107087
FLOCK 2E-3              
1 41486U 98067JG  18091.53130840  .01782994  29045-2  13236-2 0  9995
2 41486  51.6238 328.6625 0009159 245.2815 114.7312 16.15400185107236
FLOCK 2E-4              
1 41487U 98067JH  18070.31675234  .14212785  12501-4  82846-3 0  9995
2 41487  51.6109  75.1635 0003380  16.6517 345.1183 16.41744848103922
FLOCK 2E-5              
1 41564U 98067JN  18091.09840165  .00047012  00000-0  25012-3 0  9999
2 41564  51.6268 343.9984 0002457 193.9892 166.1042 15.79966730105053
FLOCK 2E-7              
1 41565U 98067JP  18091.52730685  .01035749  65230-3  10302-2 0  9992
2 41565  51.6182 321.7045 0008640 244.8139 115.2103 16.10600243105289
FLOCK 2E'-5             
1 41567U 98067JR  18091.31655897  .00034804  00000-0  20239-3 0  9994
2 41567  51.6343 347.0872 0003911 158.8677 201.2486 15.78129992104904
FLOCK 2E'-6             
1 41568U 98067JS  18091.50866907  .01163844  93400-3  88514-3 0  9999
2 41568  51.6223 331.5033 0007914 245.8967 114.1281 16.14597103105152
FLOCK 2E'-8             
1 41569U 98067JT  18091.52821753  .00982438  58841-3  92295-3 0  9990
2 41569  51.6194 319.5034 0007013 249.5278 110.4990 16.11469541105194
FLOCK 2E-12             
1 41573U 98067JX  18062.65860353  .09928625  12431-4  80990-3 0  9998
2 41573  51.5922 110.2436 0003600   1.2289 358.7449 16.39031415100592
FLOCK 2E-11             
1 41574U 98067JY  18062.82927663  .08399169  12325-4  83007-3 0  9994
2 41574  51.5802 108.9826 0002045  91.6097 269.0366 16.37402810100624
FLOCK 2E'-9             
1 41575U 98067JZ  18070.94679928  .20696072  12478-4  12063-2 0  9994
2 41575  51.6104  58.7875 0003218 307.0775  52.9851 16.41747452102008
FLOCK 2E'-11            
1 41577U 98067KB  18070.48609598  .17416888  12466-4  85478-3 0  9990
2 41577  51.6089  71.8929 0001695 227.7940 132.4139 16.43071472101519
FLOCK 2E'-13            
1 41761U 98067KH  18090.94528076  .00093646  00000-0  46407-3 0  9990
2 41761  51.6331   8.0010 0003584 221.0447 139.0286 15.81235161 88030
FLOCK 2E'-14            
1 41762U 98067KJ  18090.95146552  .00020691  00000-0  17755-3 0  9991
2 41762  51.6370  12.6710 0003631 254.6482 105.4114 15.69347174 87979
FLOCK 2E'-16            
1 41763U 98067KK  18091.16599948  .00103214  00000-0  47408-3 0  9998
2 41763  51.6312   4.2544 0002250 219.1308 140.9532 15.82833113 88064
FLOCK 2E'-15            
1 41764U 98067KL  18090.90393695  .00015819  00000-0  14344-3 0  9997
2 41764  51.6372  14.6091 0003496 265.2958  94.7640 15.68214838 87908
TIANGONG-2              
1 41765U 16057A   18091.47072169  .00003978  00000-0  50865-4 0  9992
2 41765  42.7842  80.2871 0002100  73.9390  67.7767 15.60808934 87999
FLOCK 2E'-18            
1 41769U 98067KM  18091.19778840  .00015770  00000-0  14278-3 0  9995
2 41769  51.6374  12.8153 0002502 295.2287  64.8450 15.68256810 87957
FLOCK 2E'-17            
1 41776U 98067KN  18091.30771223  .00066552  00000-0  38236-3 0  9998
2 41776  51.6381   7.5319 0000667 265.7940  94.2984 15.78121001 88028
FLOCK 2E'-19            
1 41777U 98067KP  18091.14229843  .00160831  00000-0  65164-3 0  9992
2 41777  51.6272 358.7457 0004576 204.3303 155.7485 15.85270227 88085
FLOCK 2E'-20            
1 41782U 98067KQ  18090.92439788  .00035196  00000-0  24246-3 0  9995
2 41782  51.6353   4.9167 0001089 278.5274  81.5602 15.74260684 87850
BANXING-2               
1 41834U 16057H   18091.33486821  .00014470  00000-0  92354-4 0  9996
2 41834  42.7812  44.3844 0008654 138.2820 353.6863 15.76146719 82450
ITF-2                   
1 41932U 98067KU  18090.84536852  .00026932  00000-0  20889-3 0  9990
2 41932  51.6386  18.0030 0002531 245.7559 114.3175 15.71613145 68583
WASEDA-SAT3             
1 41933U 98067KV  18090.88363264  .00039463  00000-0  25767-3 0  9993
2 41933  51.6366  13.6491 0001992 234.6062 125.4751 15.75442991 68643
AOBA-VELOX 3            
1 41935U 98067KX  18091.39680115  .00034154  00000-0  23774-3 0  9997
2 41935  51.6374  12.6443 0001877 239.6485 120.4329 15.74033662 68800
LEMUR-2-REDFERN-GOES    
1 42059U 98067LA  18091.18719173  .00030144  00000-0  23561-3 0  9998
2 42059  51.6358  19.4717 0003332 295.6866  64.3788 15.71361680 61081
LEMUR-2-TRUTNA          
1 42067U 98067LC  18091.49754357  .00356343  65813-4  63600-3 0  9991
2 42067  51.6368 357.3642 0003667 213.4688 146.6091 16.01216513 61239
LEMUR-2-AUSTINTACIOUS   
1 42068U 98067LD  18090.95046753  .00034449  00000-0  23642-3 0  9991
2 42068  51.6359  17.1304 0002774 279.6000  80.4685 15.74356902 61023
LEMUR-2-TRUTNAHD        
1 42069U 98067LE  18091.20231097  .00030218  00000-0  22641-3 0  9996
2 42069  51.6371  18.1027 0002653 291.6471  68.4244 15.72368236 61087
HAVELSAT                
1 42700U 98067LH  18091.28085738  .00023018  00000-0  21541-3 0  9993
2 42700  51.6381  26.9065 0003029 337.1168  22.9693 15.67138005 49943
SOMP 2                  
1 42701U 98067LJ  18091.29294610  .00021060  00000-0  20288-3 0  9998
2 42701  51.6380  27.7369 0003092 335.0468  25.0378 15.66477672 49926
COLUMBIA                
1 42702U 98067LK  18066.37622415  .22640365  12480-4  12628-2 0  9994
2 42702  51.6147 131.6862 0001623 340.6009  19.7898 16.42105255 46241
SGSAT                   
1 42703U 98067LL  18091.21145253  .00170661  00000-0  60355-3 0  9991
2 42703  51.6325  13.5010 0003775 178.5881 181.5135 15.88029726 50029
CXBN-2                  
1 42704U 98067LM  18091.21877907  .00022842  00000-0  21687-3 0  9992
2 42704  51.6386  28.0026 0000940 189.8109 170.2869 15.66786116 49840
ICECUBE                 
1 42705U 98067LN  18091.38299892  .00041928  00000-0  32145-3 0  9999
2 42705  51.6429  23.1532 0001249 221.0189 139.0715 15.71659488 49982
PHOENIX                 
1 42706U 98067LP  18091.29190592  .00017879  00000-0  17635-3 0  9992
2 42706  51.6381  27.7336 0000461 139.3234 220.7796 15.66011511 49844
X-CUBESAT               
1 42707U 98067LQ  18091.28200537  .00024787  00000-0  22868-3 0  9993
2 42707  51.6355  26.8744 0000629 141.4371 218.6670 15.67445309 49845
QBEE50-LTU-OC           
1 42708U 98067LR  18091.19360669  .00022337  00000-0  21132-3 0  9999
2 42708  51.6383  27.8118 0000561 141.4519 218.6517 15.66889959 49787
ALTAIR PATHFINDER       
1 42711U 98067LS  18091.35935109  .00012260  00000-0  14162-3 0  9997
2 42711  51.6382  31.9338 0002783 241.3931 118.6784 15.62333343 49452
SHARC                   
1 42712U 98067LT  18091.19990216  .00009894  00000-0  12074-3 0  9999
2 42712  51.6402  33.9100 0001190 242.8210 117.2663 15.61157914 49652
ZA-AEROSAT              
1 42713U 98067LU  18091.45106354  .00017189  00000-0  17732-3 0  9993
2 42713  51.6372  28.7878 0001343 203.5046 156.5888 15.64911934 49506
LINK                    
1 42714U 98067LV  18091.21596929  .00041935  00000-0  31852-3 0  9994
2 42714  51.6336  24.1426 0001772 175.1315 184.9700 15.71880457 49652
CSUNSAT 1               
1 42715U 98067LW  18091.30152800  .00018978  00000-0  19255-3 0  9995
2 42715  51.6385  29.3021 0002770 224.4422 135.6351 15.65251442 49486
UPSAT                   
1 42716U 98067LX  18091.42992826  .00033529  00000-0  27802-3 0  9995
2 42716  51.6366  24.1287 0001315   0.0315   0.0682 15.69886688 49691
SPACECUBE               
1 42717U 98067LY  18091.28134117  .00023294  00000-0  22062-3 0  9992
2 42717  51.6365  27.6445 0001823 347.2449  12.8501 15.66833937 48879
HOOPOE                  
1 42718U 98067LZ  18091.41641072  .00028436  00000-0  25131-3 0  9994
2 42718  51.6375  25.5499 0001403 349.9032  10.1936 15.68422826 48919
CHALLENGER              
1 42721U 98067MA  18091.40441348  .00048518  00000-0  32275-3 0  9991
2 42721  51.6342  20.8981 0001830 300.5339  59.5479 15.74920408 48676
NJUST-1                 
1 42722U 98067MB  18091.34208189  .00015698  00000-0  16738-3 0  9998
2 42722  51.6380  30.3206 0004388 308.3594  51.7006 15.64143845 48542
UNSW-ECO                
1 42723U 98067MC  18091.44190863  .00029069  00000-0  25348-3 0  9993
2 42723  51.6392  25.7394 0003047 308.5315  51.5409 15.68736506 48592
DUTHSAT                 
1 42724U 98067MD  18091.35695394  .00052805  00000-0  36741-3 0  9996
2 42724  51.6351  22.1082 0001305 305.8054  54.2824 15.73843126 48558
LILACSAT-1              
1 42725U 98067ME  18091.42165306  .00021747  00000-0  21497-3 0  9993
2 42725  51.6381  28.6013 0003191 313.0724  47.0004 15.65807633 48472
NSIGHT-1                
1 42726U 98067MF  18091.29626720  .00007674  00000-0  98089-4 0  9996
2 42726  51.6401  34.5485 0004582 312.0261  48.0342 15.60320513 48394
SNUSAT-1                
1 42727U 98067MG  18091.04545684  .00022667  00000-0  22477-3 0  9995
2 42727  51.6365  30.5515 0004776 259.6225 100.4232 15.65693934 48380
QBITO                   
1 42728U 98067MH  18091.37735787  .00023832  00000-0  22507-3 0  9996
2 42728  51.6399  27.5919 0001099 335.8786  24.2158 15.66890133 48297
AALTO-2                 
1 42729U 98067MJ  18091.23981809  .00024640  00000-0  23096-3 0  9992
2 42729  51.6377  28.1361 0001039 334.7590  25.3355 15.67055475 48280
SUSAT                   
1 42730U 98067MK  18091.23794441  .00020078  00000-0  19582-3 0  9994
2 42730  51.6376  28.8635 0001204 326.4357  33.6563 15.66205494 48263
I-INSPIRE II            
1 42731U 98067ML  18091.39658412  .00026406  00000-0  22590-3 0  9993
2 42731  51.6367  25.3867 0003902 238.0185 122.0433 15.69256400 48374
POLYITAN-2-SAU          
1 42732U 98067MM  18091.21448051  .00022620  00000-0  21045-3 0  9999
2 42732  51.6373  27.9392 0004267 238.7197 121.3381 15.67291328 48323
SNUSAT-1B               
1 42733U 98067MN  18091.36644282  .00022086  00000-0  21432-3 0  9996
2 42733  51.6376  28.2134 0004421 245.0432 115.0105 15.66257068 48337
EXALTA-1                
1 42734U 98067MP  18091.39974042  .00031669  00000-0  26796-3 0  9995
2 42734  51.6352  25.3975 0004283 272.9729  87.0778 15.69418773 48325
AOXIANG-1               
1 42735U 98067MQ  18091.51227958  .00017205  00000-0  18119-3 0  9997
2 42735  51.6375  29.1913 0004805 304.7786  55.2756 15.64378952 49707
BEEAGLESAT              
1 42736U 98067MR  18091.43705377  .00019350  00000-0  19488-3 0  9998
2 42736  51.6371  28.6828 0004447 303.2863  56.7706 15.65419039 48393
ATLANTIS                
1 42737U 98067MS  18087.11387049  .13966215  12356-4  93055-3 0  9999
2 42737  51.6095  27.8979 0006293 234.7874 125.2564 16.40626348 47903
PROGRESS-MS 07          
1 42971U 17065A   18091.62771991 -.00003653  00000-0 -58492-4 0  9994
2 42971  51.6400  40.5131 0021227 241.1637 110.9628 15.48447802 26326
SIMPL                   
1 42983U 98067NF  18091.47676135  .00002922  00000-0  48617-4 0  9999
2 42983  51.6431  40.0274 0003169 273.0499 189.4272 15.55703123 24278
ECAMSAT                 
1 43019U 98067NG  18091.31076621  .00004798  00000-0  73921-4 0  9996
2 43019  51.6411  40.6384 0004297 242.6237 117.4317 15.56233189106576
ASTERIA                 
1 43020U 98067NH  18091.32379313  .00011296  00000-0  15714-3 0  9999
2 43020  51.6416  39.9838 0001618 231.1844 128.9004 15.57489820 20503
DELLINGR (RBLE)         
1 43021U 98067NJ  18091.43268821  .00006727  00000-0  99994-4 0  9999
2 43021  51.6405  39.9542 0001542 224.1552 135.9316 15.56463826 20510
TECHEDSAT 6             
1 43026U 98067NK  18091.34043222  .00144727  00000-0  97143-3 0  9996
2 43026  51.6338  33.2949 0003192 144.8526 215.2684 15.74245756 20497
OSIRIS-3U               
1 43027U 98067NL  18091.26772238  .00022805  00000-0  27847-3 0  9990
2 43027  51.6396  38.8511 0002387 192.6253 167.4680 15.60343443 20391
SOYUZ-MS 07             
1 43063U 17081A   18090.58626157  .00001630  00000-0  31800-4 0  9997
2 43063  51.6406  45.5717 0001685 278.7810  65.9688 15.54173033 16205
PROGRESS-MS 08          
1 43211U 18019A   18090.58626157  .00001630  00000-0  31800-4 0  9994
2 43211  51.6406  45.5717 0001685 278.7810  65.9688 15.54173033  7198
SOYUZ-MS 08             
1 43238U 18026A   18090.58626157  .00001630  00000-0  31800-4 0  9991
2 43238  51.6406  45.5717 0001685 278.7810  65.9688 15.54173033  1540
